CCSDS_OMM_VERS = 2.0
CREATION_DATE  = 
ORIGINATOR     = 

OBJECT_NAME    = STARLINK-36881
OBJECT_ID      = 2026-038B
CENTER_NAME    = EARTH
REF_FRAME      = TEME
TIME_SYSTEM    = UTC
MEAN_ELEMENT_THEORY = SGP/SGP4

EPOCH          = 2026-03-16T20:20:37.231296
MEAN_MOTION    = 15.75190320
ECCENTRICITY   = .000126
INCLINATION    = 97.2852
RA_OF_ASC_NODE = 86.5066
ARG_OF_PERICENTER = 92.8940
MEAN_ANOMALY   = 267.2470

EPHEMERIS_TYPE = 0
CLASSIFICATION_TYPE = U
NORAD_CAT_ID   = 67962
ELEMENT_SET_NO = 999
REV_AT_EPOCH   = 431
BSTAR          = .27367E-3
MEAN_MOTION_DOT = .40886E-3
MEAN_MOTION_DDOT = 0

CCSDS_OMM_VERS = 2.0
CREATION_DATE  = 
ORIGINATOR     = 

OBJECT_NAME    = STARLINK-36357
OBJECT_ID      = 2026-038C
CENTER_NAME    = EARTH
REF_FRAME      = TEME
TIME_SYSTEM    = UTC
MEAN_ELEMENT_THEORY = SGP/SGP4

EPOCH          = 2026-03-17T04:00:01.999584
MEAN_MOTION    = 15.70425776
ECCENTRICITY   = .0001466
INCLINATION    = 97.2846
RA_OF_ASC_NODE = 86.8441
ARG_OF_PERICENTER = 72.7092
MEAN_ANOMALY   = 299.1304

EPHEMERIS_TYPE = 0
CLASSIFICATION_TYPE = U
NORAD_CAT_ID   = 67963
ELEMENT_SET_NO = 999
REV_AT_EPOCH   = 440
BSTAR          = -.22547E-1
MEAN_MOTION_DOT = -.2366248E-1
MEAN_MOTION_DDOT = 0

CCSDS_OMM_VERS = 2.0
CREATION_DATE  = 
ORIGINATOR     = 

OBJECT_NAME    = STARLINK-36349
OBJECT_ID      = 2026-038D
CENTER_NAME    = EARTH
REF_FRAME      = TEME
TIME_SYSTEM    = UTC
MEAN_ELEMENT_THEORY = SGP/SGP4

EPOCH          = 2026-03-16T20:00:01.999008
MEAN_MOTION    = 15.72105989
ECCENTRICITY   = .0001733
INCLINATION    = 97.2848
RA_OF_ASC_NODE = 86.4943
ARG_OF_PERICENTER = 86.8176
MEAN_ANOMALY   = 192.9475

EPHEMERIS_TYPE = 0
CLASSIFICATION_TYPE = U
NORAD_CAT_ID   = 67964
ELEMENT_SET_NO = 999
REV_AT_EPOCH   = 434
BSTAR          = -.20169E-1
MEAN_MOTION_DOT = -.2286035E-1
MEAN_MOTION_DDOT = 0

CCSDS_OMM_VERS = 2.0
CREATION_DATE  = 
ORIGINATOR     = 

OBJECT_NAME    = STARLINK-36806
OBJECT_ID      = 2026-038E
CENTER_NAME    = EARTH
REF_FRAME      = TEME
TIME_SYSTEM    = UTC
MEAN_ELEMENT_THEORY = SGP/SGP4

EPOCH          = 2026-03-16T20:16:02.989920
MEAN_MOTION    = 15.75192183
ECCENTRICITY   = .0001147
INCLINATION    = 97.2859
RA_OF_ASC_NODE = 86.5096
ARG_OF_PERICENTER = 100.1899
MEAN_ANOMALY   = 259.9496

EPHEMERIS_TYPE = 0
CLASSIFICATION_TYPE = U
NORAD_CAT_ID   = 67965
ELEMENT_SET_NO = 999
REV_AT_EPOCH   = 431
BSTAR          = .40311E-3
MEAN_MOTION_DOT = .60428E-3
MEAN_MOTION_DDOT = 0

CCSDS_OMM_VERS = 2.0
CREATION_DATE  = 
ORIGINATOR     = 

OBJECT_NAME    = STARLINK-36820
OBJECT_ID      = 2026-038F
CENTER_NAME    = EARTH
REF_FRAME      = TEME
TIME_SYSTEM    = UTC
MEAN_ELEMENT_THEORY = SGP/SGP4

EPOCH          = 2026-03-16T20:14:31.642656
MEAN_MOTION    = 15.75235686
ECCENTRICITY   = .0001631
INCLINATION    = 97.2854
RA_OF_ASC_NODE = 86.5111
ARG_OF_PERICENTER = 122.4663
MEAN_ANOMALY   = 237.6760

EPHEMERIS_TYPE = 0
CLASSIFICATION_TYPE = U
NORAD_CAT_ID   = 67966
ELEMENT_SET_NO = 999
REV_AT_EPOCH   = 431
BSTAR          = .13336E-2
MEAN_MOTION_DOT = .204021E-2
MEAN_MOTION_DDOT = 0

CCSDS_OMM_VERS = 2.0
CREATION_DATE  = 
ORIGINATOR     = 

OBJECT_NAME    = STARLINK-36819
OBJECT_ID      = 2026-038G
CENTER_NAME    = EARTH
REF_FRAME      = TEME
TIME_SYSTEM    = UTC
MEAN_ELEMENT_THEORY = SGP/SGP4

EPOCH          = 2026-03-16T20:00:01.999008
MEAN_MOTION    = 15.57890367
ECCENTRICITY   = .0002043
INCLINATION    = 97.2840
RA_OF_ASC_NODE = 86.4672
ARG_OF_PERICENTER = 84.6576
MEAN_ANOMALY   = 118.7334

EPHEMERIS_TYPE = 0
CLASSIFICATION_TYPE = U
NORAD_CAT_ID   = 67967
ELEMENT_SET_NO = 999
REV_AT_EPOCH   = 434
BSTAR          = -.33935E-1
MEAN_MOTION_DOT = -.2235397E-1
MEAN_MOTION_DDOT = 0

CCSDS_OMM_VERS = 2.0
CREATION_DATE  = 
ORIGINATOR     = 

OBJECT_NAME    = STARLINK-36812
OBJECT_ID      = 2026-038H
CENTER_NAME    = EARTH
REF_FRAME      = TEME
TIME_SYSTEM    = UTC
MEAN_ELEMENT_THEORY = SGP/SGP4

EPOCH          = 2026-03-16T20:00:01.999008
MEAN_MOTION    = 15.75166667
ECCENTRICITY   = .0001533
INCLINATION    = 97.2864
RA_OF_ASC_NODE = 86.5055
ARG_OF_PERICENTER = 79.2595
MEAN_ANOMALY   = 235.8650

EPHEMERIS_TYPE = 0
CLASSIFICATION_TYPE = U
NORAD_CAT_ID   = 67968
ELEMENT_SET_NO = 999
REV_AT_EPOCH   = 434
BSTAR          = .15688E-3
MEAN_MOTION_DOT = .23311E-3
MEAN_MOTION_DDOT = 0

CCSDS_OMM_VERS = 2.0
CREATION_DATE  = 
ORIGINATOR     = 

OBJECT_NAME    = STARLINK-36709
OBJECT_ID      = 2026-038J
CENTER_NAME    = EARTH
REF_FRAME      = TEME
TIME_SYSTEM    = UTC
MEAN_ELEMENT_THEORY = SGP/SGP4

EPOCH          = 2026-03-16T20:00:01.999008
MEAN_MOTION    = 15.75166994
ECCENTRICITY   = .0001201
INCLINATION    = 97.2865
RA_OF_ASC_NODE = 86.5111
ARG_OF_PERICENTER = 69.5194
MEAN_ANOMALY   = 259.6051

EPHEMERIS_TYPE = 0
CLASSIFICATION_TYPE = U
NORAD_CAT_ID   = 67969
ELEMENT_SET_NO = 999
REV_AT_EPOCH   = 434
BSTAR          = .17026E-3
MEAN_MOTION_DOT = .25315E-3
MEAN_MOTION_DDOT = 0

CCSDS_OMM_VERS = 2.0
CREATION_DATE  = 
ORIGINATOR     = 

OBJECT_NAME    = STARLINK-36319
OBJECT_ID      = 2026-038K
CENTER_NAME    = EARTH
REF_FRAME      = TEME
TIME_SYSTEM    = UTC
MEAN_ELEMENT_THEORY = SGP/SGP4

EPOCH          = 2026-03-16T20:00:01.999008
MEAN_MOTION    = 15.73448360
ECCENTRICITY   = .0001517
INCLINATION    = 97.2856
RA_OF_ASC_NODE = 86.5090
ARG_OF_PERICENTER = 94.5347
MEAN_ANOMALY   = 227.5078

EPHEMERIS_TYPE = 0
CLASSIFICATION_TYPE = U
NORAD_CAT_ID   = 67970
ELEMENT_SET_NO = 999
REV_AT_EPOCH   = 431
BSTAR          = -.19173E-1
MEAN_MOTION_DOT = -.2299542E-1
MEAN_MOTION_DDOT = 0

CCSDS_OMM_VERS = 2.0
CREATION_DATE  = 
ORIGINATOR     = 

OBJECT_NAME    = STARLINK-36710
OBJECT_ID      = 2026-038L
CENTER_NAME    = EARTH
REF_FRAME      = TEME
TIME_SYSTEM    = UTC
MEAN_ELEMENT_THEORY = SGP/SGP4

EPOCH          = 2026-03-16T20:00:01.999008
MEAN_MOTION    = 15.75211862
ECCENTRICITY   = .0001396
INCLINATION    = 97.2866
RA_OF_ASC_NODE = 86.5162
ARG_OF_PERICENTER = 87.7227
MEAN_ANOMALY   = 251.3902

EPHEMERIS_TYPE = 0
CLASSIFICATION_TYPE = U
NORAD_CAT_ID   = 67971
ELEMENT_SET_NO = 999
REV_AT_EPOCH   = 434
BSTAR          = -.46387E-3
MEAN_MOTION_DOT = -.6883E-3
MEAN_MOTION_DDOT = 0

CCSDS_OMM_VERS = 2.0
CREATION_DATE  = 
ORIGINATOR     = 

OBJECT_NAME    = STARLINK-36894
OBJECT_ID      = 2026-038M
CENTER_NAME    = EARTH
REF_FRAME      = TEME
TIME_SYSTEM    = UTC
MEAN_ELEMENT_THEORY = SGP/SGP4

EPOCH          = 2026-03-16T20:00:01.999008
MEAN_MOTION    = 15.75214434
ECCENTRICITY   = .0001381
INCLINATION    = 97.2871
RA_OF_ASC_NODE = 86.5176
ARG_OF_PERICENTER = 57.5645
MEAN_ANOMALY   = 287.5396

EPHEMERIS_TYPE = 0
CLASSIFICATION_TYPE = U
NORAD_CAT_ID   = 67972
ELEMENT_SET_NO = 999
REV_AT_EPOCH   = 434
BSTAR          = -.29874E-3
MEAN_MOTION_DOT = -.44505E-3
MEAN_MOTION_DDOT = 0

CCSDS_OMM_VERS = 2.0
CREATION_DATE  = 
ORIGINATOR     = 

OBJECT_NAME    = STARLINK-36900
OBJECT_ID      = 2026-038N
CENTER_NAME    = EARTH
REF_FRAME      = TEME
TIME_SYSTEM    = UTC
MEAN_ELEMENT_THEORY = SGP/SGP4

EPOCH          = 2026-03-16T20:00:01.999008
MEAN_MOTION    = 15.62802298
ECCENTRICITY   = .0001635
INCLINATION    = 97.2840
RA_OF_ASC_NODE = 86.5046
ARG_OF_PERICENTER = 96.8595
MEAN_ANOMALY   = 205.8216

EPHEMERIS_TYPE = 0
CLASSIFICATION_TYPE = U
NORAD_CAT_ID   = 67973
ELEMENT_SET_NO = 999
REV_AT_EPOCH   = 434
BSTAR          = -.29263E-1
MEAN_MOTION_DOT = -.2317208E-1
MEAN_MOTION_DDOT = 0

CCSDS_OMM_VERS = 2.0
CREATION_DATE  = 
ORIGINATOR     = 

OBJECT_NAME    = STARLINK-36901
OBJECT_ID      = 2026-038P
CENTER_NAME    = EARTH
REF_FRAME      = TEME
TIME_SYSTEM    = UTC
MEAN_ELEMENT_THEORY = SGP/SGP4

EPOCH          = 2026-03-16T20:00:01.999008
MEAN_MOTION    = 15.75219951
ECCENTRICITY   = .0001267
INCLINATION    = 97.2868
RA_OF_ASC_NODE = 86.5189
ARG_OF_PERICENTER = 80.7056
MEAN_ANOMALY   = 270.3995

EPHEMERIS_TYPE = 0
CLASSIFICATION_TYPE = U
NORAD_CAT_ID   = 67974
ELEMENT_SET_NO = 999
REV_AT_EPOCH   = 434
BSTAR          = -.52221E-3
MEAN_MOTION_DOT = -.77419E-3
MEAN_MOTION_DDOT = 0

CCSDS_OMM_VERS = 2.0
CREATION_DATE  = 
ORIGINATOR     = 

OBJECT_NAME    = STARLINK-36883
OBJECT_ID      = 2026-038Q
CENTER_NAME    = EARTH
REF_FRAME      = TEME
TIME_SYSTEM    = UTC
MEAN_ELEMENT_THEORY = SGP/SGP4

EPOCH          = 2026-03-16T20:00:01.999008
MEAN_MOTION    = 15.75558542
ECCENTRICITY   = .0001602
INCLINATION    = 97.2873
RA_OF_ASC_NODE = 86.5328
ARG_OF_PERICENTER = 44.6975
MEAN_ANOMALY   = 342.3467

EPHEMERIS_TYPE = 0
CLASSIFICATION_TYPE = U
NORAD_CAT_ID   = 67975
ELEMENT_SET_NO = 999
REV_AT_EPOCH   = 434
BSTAR          = -.82042E-2
MEAN_MOTION_DOT = -.1113896E-1
MEAN_MOTION_DDOT = 0

CCSDS_OMM_VERS = 2.0
CREATION_DATE  = 
ORIGINATOR     = 

OBJECT_NAME    = STARLINK-36880
OBJECT_ID      = 2026-038R
CENTER_NAME    = EARTH
REF_FRAME      = TEME
TIME_SYSTEM    = UTC
MEAN_ELEMENT_THEORY = SGP/SGP4

EPOCH          = 2026-03-16T20:00:01.999008
MEAN_MOTION    = 15.59072290
ECCENTRICITY   = .0001886
INCLINATION    = 97.2842
RA_OF_ASC_NODE = 86.4944
ARG_OF_PERICENTER = 90.6482
MEAN_ANOMALY   = 182.6551

EPHEMERIS_TYPE = 0
CLASSIFICATION_TYPE = U
NORAD_CAT_ID   = 67976
ELEMENT_SET_NO = 999
REV_AT_EPOCH   = 434
BSTAR          = -.32678E-1
MEAN_MOTION_DOT = -.224923E-1
MEAN_MOTION_DDOT = 0

